STARLINK-35816          
1 66499U 25263Q   25325.66672454 -.01125418  41621-3 -18708-2 0  9996
2 66499  43.0009 252.5509 0002121 258.7988  96.5510 16.02090325  2245
STARLINK-35894          
1 66500U 25263R   25325.66672454 -.00991968  33010-3 -16612-2 0  9994
2 66500  43.0008 252.5545 0002320 253.7076 100.1396 16.01940576  2246
STARLINK-35897          
1 66501U 25263S   25325.66672454 -.01125033  41640-3 -18595-2 0  9998
2 66501  43.0009 252.5469 0002071 260.3160  96.6320 16.02186808  2241
STARLINK-35922          
1 66502U 25263T   25325.66672454 -.01128464  42019-3 -18307-2 0  9992
2 66502  43.0010 252.5345 0002147 261.8928  99.9158 16.02502412  2247
STARLINK-35917          
1 66503U 25263U   25325.66672454 -.01132639  42411-3 -18128-2 0  9999
2 66503  43.0010 252.5258 0002140 259.6800 105.5042 16.02730836  2247
STARLINK-35916          
1 66504U 25263V   25325.66672454 -.01121903  41724-3 -17854-2 0  9993
2 66504  43.0010 252.5219 0002053 251.2926 115.4430 16.02824650  2244
STARLINK-34766          
1 66505U 25263W   25325.66672454 -.01130117  42045-3 -18536-2 0  9996
2 66505  43.0012 252.5421 0002000 261.2636  97.5871 16.02318275  2243
STARLINK-34765          
1 66506U 25263X   25325.66672454 -.01123633  41639-3 -18350-2 0  9994
2 66506  43.0013 252.5389 0002052 257.9856 102.1747 16.02389806  2244
STARLINK-34767          
1 66507U 25263Y   25325.66672454 -.01128770  42100-3 -18174-2 0  9990
2 66507  43.0015 252.5300 0002078 257.1338 106.5546 16.02630136  2245
STARLINK-35608          
1 66508U 25263Z   25325.66672454 -.01132564  42496-3 -17922-2 0  9995
2 66508  43.0009 252.5184 0002112 257.5605 110.5622 16.02921099  2240
STARLINK-35598          
1 66509U 25263AA  25325.66672454 -.01130076  42557-3 -17371-2 0  9998
2 66509  43.0006 252.5004 0002117 257.5890 117.5439 16.03405906  2248
STARLINK-35600          
1 66510U 25263AB  25325.66672454 -.01127485  42211-3 -17701-2 0  9994
2 66510  43.0010 252.5132 0002144 257.2570 112.7948 16.03052659  2244
